{
    "links": {
        "self": "http://www.neowsapp.com/rest/v1/neo/3769408?api_key=iIulBulltgU6a56xZRHN4H3l9WmuAYTsLGpBGhQ2"
    },
    "id": "3769408",
    "neo_reference_id": "3769408",
    "name": "(2017 DC)",
    "designation": "2017 DC",
    "nasa_jpl_url": "http://ssd.jpl.nasa.gov/sbdb.cgi?sstr=3769408",
    "absolute_magnitude_h": 23.0,
    "estimated_diameter": {
        "kilometers": {
            "estimated_diameter_min": 0.0667659413,
            "estimated_diameter_max": 0.1492931834
        },
        "meters": {
            "estimated_diameter_min": 66.7659413495,
            "estimated_diameter_max": 149.2931834393
        },
        "miles": {
            "estimated_diameter_min": 0.0414864197,
            "estimated_diameter_max": 0.0927664547
        },
        "feet": {
            "estimated_diameter_min": 219.0483710172,
            "estimated_diameter_max": 489.807047955
        }
    },
    "is_potentially_hazardous_asteroid": false,
    "close_approach_data": [
        {
            "close_approach_date": "1900-11-13",
            "close_approach_date_full": "1900-Nov-13 11:59",
            "epoch_date_close_approach": -2181643260000,
            "relative_velocity": {
                "kilometers_per_second": "37.9948692072",
                "kilometers_per_hour": "136781.5291460568",
                "miles_per_hour": "84990.7229296707"
            },
            "miss_distance": {
                "astronomical": "0.1021621734",
                "lunar": "39.7410854526",
                "kilometers": "15283243.535210658",
                "miles": "9496567.1711087604"
            },
            "orbiting_body": "Venus"
        },
        {
            "close_approach_date": "1904-01-26",
            "close_approach_date_full": "1904-Jan-26 23:14",
            "epoch_date_close_approach": -2080601160000,
            "relative_velocity": {
                "kilometers_per_second": "21.814823521",
                "kilometers_per_hour": "78533.3646757566",
                "miles_per_hour": "48797.5787342222"
            },
            "miss_distance": {
                "astronomical": "0.3884273716",
                "lunar": "151.0982475524",
                "kilometers": "58107907.441058492",
                "miles": "36106579.3995395096"
            },
            "orbiting_body": "Earth"
        },
        {
            "close_approach_date": "1907-03-04",
            "close_approach_date_full": "1907-Mar-04 19:37",
            "epoch_date_close_approach": -1982722980000,
            "relative_velocity": {
                "kilometers_per_second": "47.2361977871",
                "kilometers_per_hour": "170050.312033645",
                "miles_per_hour": "105662.6508300168"
            },
            "miss_distance": {
                "astronomical": "0.468327802",
                "lunar": "182.179514978",
                "kilometers": "70060841.64098174",
                "miles": "43533788.307118412"
            },
            "orbiting_body": "Earth"
        },
        {
            "close_approach_date": "2017-02-10",
            "close_approach_date_full": "2017-Feb-10 16:27",
            "epoch_date_close_approach": 1486744020000,
            "relative_velocity": {
                "kilometers_per_second": "32.2978397128",
                "kilometers_per_hour": "116272.2229659932",
                "miles_per_hour": "72247.0376535084"
            },
            "miss_distance": {
                "astronomical": "0.026401783",
                "lunar": "10.270293587",
                "kilometers": "3949650.50100221",
                "miles": "2454199.018602098"
            },
            "orbiting_body": "Earth"
        }
    ],
    "orbital_data": {
        "orbit_id": "8",
        "orbit_determination_date": "2017-09-03 06:18:09",
        "first_observation_date": "2017-02-16",
        "last_observation_date": "2017-02-26",
        "data_arc_in_days": 10,
        "observations_used": 54,
        "orbit_uncertainty": "8",
        "minimum_orbit_intersection": ".0239738",
        "jupiter_tisserand_invariant": "3.010",
        "epoch_osculation": "2457802.5",
        "eccentricity": ".8812926378695032",
        "semi_major_axis": "2.144769047846333",
        "inclination": "15.73959515667973",
        "ascending_node_longitude": "137.5295082488545",
        "orbital_period": "1147.279483141103",
        "perihelion_distance": ".2545998760489755",
        "perihelion_argument": "239.4969569006175",
        "aphelion_distance": "4.03493821964369",
        "perihelion_time": "2457756.023865841341",
        "mean_anomaly": "14.58355051491796",
        "mean_motion": ".3137857908993252",
        "equinox": "J2000",
        "orbit_class": {
            "orbit_class_type": "APO",
            "orbit_class_description": "Near-Earth asteroid orbits which cross the Earth’s orbit similar to that of 1862 Apollo",
            "orbit_class_range": "a (semi-major axis) > 1.0 AU; q (perihelion) < 1.017 AU"
        }
    },
    "is_sentry_object": false
}